#dP2026  6 11  0  0  0.00000000     289 d+D   IGc20 FIT AIUB
## 2422 345600.00000000   300.00000000 61202 0.0000000000000
+  116   G01G02G03G04G05G06G07G08G09G10G11G12G13G14G15G16G17
+        G18G19G20G21G22G23G24G25G26G27G28G29G30G31G32R02R03
+        R04R05R06R07R08R09R11R12R14R15R16R17R18R19R20R21R22
+        R24R26E02E03E04E05E06E07E08E09E10E11E12E13E14E15E16
+        E18E19E21E23E25E26E27E28E29E30E31E32E33E34E36C06C07
+        C08C11C12C13C14C19C20C21C22C23C24C25C26C27C28C29C30
+        C31C32C33C34C35C36C37C38C39C41C42J02J03J04  0  0  0
++         5  5  5  5  5  5  5  5  5  5  5  5  5  5  5  5  5
++         5  5  5  5  5  5  5  5  5  5  5  5  5  5  5  5  5
++        10  5  5  5  6  5  5  5  5  5  5  5  5  5  5  5  5
++         5  5  5  5  5  5  5  5  5  5  5  5  5  5  5  5  5
++         5  5  5  5  5  5  5  5  5  5  5  5  5  5  5  5  5
++         5  5  5  5  5  5  5  5  5  5  5  5  5  5  5  5  5
++         5  5  6  5  5  5  5  5  5  5  5  5  5  5  0  0  0
%c M  cc GPS ccc cccc cccc cccc cccc ccccc ccccc ccccc ccccc
%c cc cc ccc ccc cccc cccc cccc cccc ccccc ccccc ccccc ccccc
%f  1.2500000  1.025000000  0.00000000000  0.000000000000000
%f  0.0000000  0.000000000  0.00000000000  0.000000000000000
%i    0    0    0    0      0      0      0      0         0
%i    0    0    0    0      0      0      0      0         0
/* Center for Orbit Determination in Europe (CODE)                              
/* MGEX orbits and clocks for year-day 2026-1620                                
/* Middle day of a 3-day long-arc multi-GNSS solution                           
/* Systems considered: GPS/GLONASS/Galileo/BeiDou/QZSS                          
/* Product reference - DOI 10.48620/97775                                       
/* PCV:IGS20_2417 OL/AL:FES2014b NONE     YN ORB:CoN CLK:CoN                    
*  2026  6 11  2 20  0.00000000
PG01 -21594.226509 -15205.749767   3202.500630    251.186420
PG02 -19207.003370 -17217.967477  -7135.108459    116.425114
PG03 -11765.286933 -12274.599599  20227.691548    425.905208
PG04 -21154.366944  -3164.436676  15888.907769     59.719121
PG05   6317.551455  23193.049977 -11441.300463   -233.982312
PG06  -7278.468995  12870.126109  22115.996033   -592.634587
PG07 -22057.371212  -3564.654457 -14013.973131   -194.416690
PG08 -11951.555877 -11176.110851 -21186.648626    424.326463
PG09 -24769.401880   6391.792805   7191.776177    738.611768
PG10  10895.703630 -20037.350159 -13047.203466   -578.359643
PG11   5857.805388  19671.959492  16953.848370   -310.871846
PG12  11202.581706  14167.364577  19189.327057   -607.015700
PG13  12225.535006  14255.562694  18697.437092    356.219819
PG14 -13046.843256  17283.509879 -15063.288184    748.293918
PG15  13378.840428   9635.988561 -21384.088490    419.140917
PG16   -226.528070 -25457.306493  -7129.986138    279.134692
PG17 -22329.847771  13353.636311   6376.738276   -153.090661
PG18  20699.727798   1297.482295 -16699.234240   -330.846357
PG19 -14237.506548  16053.227275  15228.265879    701.737517
PG20   4397.621116  14638.332132 -21658.813652    191.058510
PG21  -1700.589504  26391.062367  -2216.472555    409.870002
PG22 -10989.817799  22398.473479  -9227.610327     14.104446
PG23  14318.155090  -8279.176630 -20634.554803    657.318715
PG24  21038.679927  15964.426421  -4808.458782     55.582351
PG25  15331.469320    450.268692  21294.130342    415.661834
PG26   3604.765872 -25611.800824   4770.569519   -373.841427
PG27     83.805584 -16589.584999 -21023.737030      0.468200
PG28   8270.172884 -12757.538307  21783.514330   -503.716982
PG29  25113.891373  -2903.683755   8380.446685   -303.694364
PG30 -14106.407365   8633.940814 -20616.983520    255.018987
PG31  -1448.627805 -18041.279262  19046.390281   -143.216604
PG32  17840.037184 -16428.058276  10897.428452    102.861474
PR02  19205.851034  -7435.171707 -14960.999395     12.169158
PR03  18024.991195 -17742.378232   3124.696952     14.854894
PR04   6807.407619 -16618.232938  18137.990170     -5.639066
PR05  -8014.718706  -7002.409285  23191.350614    169.449604
PR06 -18742.126946   6596.396070  16011.625063    -19.036179
PR07 -18203.298794  17672.693841  -2832.269204    122.233188
PR08  -6338.060298  16666.865079 -18195.363210     -5.158237
PR09 -11955.372691  -2003.886145 -22426.947096    331.463319
PR11   2459.018208  24772.759903  -5495.092430      5.815979
PR12  10203.552756  19713.868421  12602.292787     70.210481
PR14   6193.269704 -15580.368864  19252.991269     32.869265
PR15  -2665.548394 -24895.042580   4942.526892     55.335157
PR16 -10120.926647 -19658.358469 -12740.115724     50.513541
PR17  12554.626478  -6216.715972 -21326.770436    303.603713
PR18  -4040.710133 -12217.809707 -22022.090086    265.673117
PR19 -19685.716947 -12565.567230 -10197.886912     51.240250
PR20 -23769.942376  -5070.389311   7818.242737    233.659939
PR21 -15660.007659   4094.111280  19695.533127   -315.730508
PR22   5479.387793  12960.685785  21295.993410    130.192715
PR24  23893.784673   3771.327412  -8124.853493   -170.750226
PR26  -9119.797379  17787.269164 -15811.545245    -27.100008
PE02  13911.532082  10926.423239  23733.049361     46.540772
PE03  23567.738545   6338.661031 -16773.607047    -22.251933
PE04 -28669.297715   7276.214261   -837.838609   -169.134212
PE05   4682.844863  16113.664752 -24381.721574     40.900994
PE06 -24623.303702  12966.808494 -10087.402659   -283.039732
PE07  17084.005902 -16477.875240  17704.685048    -69.686836
PE08  28732.254502  -7134.233961    751.455430   -162.230492
PE09 -17103.517118  16325.978017 -17791.056266   -315.875289
PE10 -13455.355423   8999.725849  24772.302461   -798.173178
PE11  -4466.730474  17606.837198  23352.525956   5244.627487
PE12 -19442.142337    231.980123  22314.080469    -50.700326
PE13   4827.491689 -17263.144565 -23558.638430    -56.798953
PE14  10104.531275 -21426.232664 -18581.621727   3491.523354
PE15  19687.901185    394.090559 -22096.493295   -265.214247
PE16 -11611.106251  26820.454785  -4606.443307    -37.817008
PE18  10960.370894  15182.050706  20724.810091   2878.755527
PE19 -22888.958801  -6982.908125  17419.154652   3020.611607
PE21  -1223.570566 -26565.095921 -12997.892233   -748.826356
PE23 -13919.133151 -10890.146469 -23747.169879    -38.078812
PE25    817.175403  26803.023761  12543.674440     21.886324
PE26 -12582.696743 -24396.919396 -11076.115602    329.840458
PE27  12321.831818 -26314.643615   5635.755625  -1013.266261
PE28 -28555.609566    396.722733   7787.289712    -50.241216
PE29  -4817.805332 -16245.270775  24268.309976   -214.656753
PE30  18410.611335 -11312.967453  20220.355833  -1138.700847
PE31 -18386.537043  10552.831571 -20648.815771   -147.895917
PE32  28548.359590   -364.027276  -7831.060032     12.403258
PE33 -22605.343389 -17585.494364   7471.935054    -18.738693
PE34  22679.184064  17436.017363  -7625.917366   -259.631632
PE36  12425.362240  24381.205993  11268.661949   -578.232456
PC06 -14774.865568  38549.552256   8974.980130    293.377545
PC07  -8839.738115  23910.443534 -33430.998408    -25.798934
PC08 -22550.268292  24203.960220  25984.442203   -239.635743
PC11  14023.410544  15383.632293  18583.402833   -714.123920
PC12   2998.863182  18729.172268 -20464.786571    633.039953
PC13 -26828.162952  -6623.305657  -3926.063026   -925.676609
PC14  12519.816605 -23884.192149   7211.330556   -333.238867
PC19  10966.368302  10757.616230 -23283.340784   -937.478148
PC20  -3684.163741  22018.021466 -16718.378777   -901.519152
PC21  18137.481532 -21208.038510  -1144.546792   -850.213113
PC22  20673.627054  -7576.301876 -17183.903178    455.512805
PC23 -17870.608970  -3356.099246 -21156.341892   -456.598500
PC24  -3903.730061 -26275.438813   8501.003144   -407.704235
PC25 -16620.693788 -19887.361268 -10327.259819    845.272102
PC26   8552.857697 -17181.098656  20226.436078   -653.034330
PC27 -18642.566221  10361.914586  17970.769601    644.117843
PC28 -27222.417970    549.092293   6113.058122    526.906099
PC29  21242.149275  11977.123835  13562.947850    615.784720
PC30   2770.556105  16473.063058  22336.635318    466.405685
PC31  18104.510801 -11349.591615 -17963.612104    787.211172
PC32 -17988.170207  21274.797299   1266.951074   -911.198858
PC33 -10946.600445 -10839.708252  23261.816107   -913.780301
PC34  -1980.652385 -16520.105467 -22423.889065    964.807668
PC35  27566.077513   -296.866484  -4261.996502   -422.764457
PC36  15983.672547  20654.744742   9883.056455    273.493039
PC37  -9559.652520  16190.694647 -20621.200953   -932.923103
PC38 -22273.433825 -11316.928190 -12466.481024    140.101003
PC39  17821.907008   3981.878163  21108.558191   -903.987420
PC41 -20315.249840   6295.424842  18089.328770   -942.932738
PC42   5767.069242 -22935.574015  14888.258607   -892.569289
PJ02 -27801.065334  30972.368406  -1806.214506     -0.443343
PJ03 -25587.956485  23398.533055  29180.015394     -5.122841
PJ04 -33487.799364  24848.414860  -1034.981995      0.922828
EOF
